<?xml version="1.0" encoding="UTF-8" standalone="no"?>
<gpx xmlns="http://www.topografix.com/GPX/1/1" xmlns:xsi="http://www.w3.org/2001/XMLSchema-instance" creator="GPS TrackMaker" version="1.1" xsi:schemaLocation="http://www.topografix.com/GPX/1/1 http://www.topografix.com/GPX/1/1/gpx.xsd">
    <trk>
        <name>해파랑길 37코스 바우길 07구간_20260511</name>
        <trkseg>
            <trkpt lat="37.732637" lon="128.990132">
                <ele>17.41</ele>
            </trkpt>
            <trkpt lat="37.732664" lon="128.990133">
                <ele>17.048</ele>
            </trkpt>
            <trkpt lat="37.732785" lon="128.990119">
                <ele>15.802</ele>
            </trkpt>
            <trkpt lat="37.732867" lon="128.990068">
                <ele>15.97</ele>
            </trkpt>
            <trkpt lat="37.732968" lon="128.990083">
                <ele>14.861</ele>
            </trkpt>
            <trkpt lat="37.733004" lon="128.990155">
                <ele>13.676</ele>
            </trkpt>
            <trkpt lat="37.733073" lon="128.990246">
                <ele>12.21</ele>
            </trkpt>
            <trkpt lat="37.733165" lon="128.99022">
                <ele>11.754</ele>
            </trkpt>
            <trkpt lat="37.733397" lon="128.990067">
                <ele>11.178</ele>
            </trkpt>
            <trkpt lat="37.733591" lon="128.989955">
                <ele>11.408</ele>
            </trkpt>
            <trkpt lat="37.733749" lon="128.989824">
                <ele>12.085</ele>
            </trkpt>
            <trkpt lat="37.733953" lon="128.989603">
                <ele>13.759</ele>
            </trkpt>
            <trkpt lat="37.734086" lon="128.989408">
                <ele>14.29</ele>
            </trkpt>
            <trkpt lat="37.734204" lon="128.989535">
                <ele>13.54</ele>
            </trkpt>
            <trkpt lat="37.734118" lon="128.989664">
                <ele>13.246</ele>
            </trkpt>
            <trkpt lat="37.734032" lon="128.989758">
                <ele>12.614</ele>
            </trkpt>
            <trkpt lat="37.73402" lon="128.989843">
                <ele>11.696</ele>
            </trkpt>
            <trkpt lat="37.73403" lon="128.989934">
                <ele>10.713</ele>
            </trkpt>
            <trkpt lat="37.734062" lon="128.990032">
                <ele>9.539</ele>
            </trkpt>
            <trkpt lat="37.734154" lon="128.989994">
                <ele>10.065</ele>
            </trkpt>
            <trkpt lat="37.734332" lon="128.989907">
                <ele>10.409</ele>
            </trkpt>
            <trkpt lat="37.734566" lon="128.989784">
                <ele>9.874</ele>
            </trkpt>
            <trkpt lat="37.734751" lon="128.989642">
                <ele>8.163</ele>
            </trkpt>
            <trkpt lat="37.734891" lon="128.989489">
                <ele>7.249</ele>
            </trkpt>
            <trkpt lat="37.735075" lon="128.989329">
                <ele>6.403</ele>
            </trkpt>
            <trkpt lat="37.735019" lon="128.989247">
                <ele>7.333</ele>
            </trkpt>
            <trkpt lat="37.734886" lon="128.989095">
                <ele>9.383</ele>
            </trkpt>
            <trkpt lat="37.734626" lon="128.988762">
                <ele>10.731</ele>
            </trkpt>
            <trkpt lat="37.734549" lon="128.988614">
                <ele>10.017</ele>
            </trkpt>
            <trkpt lat="37.734501" lon="128.988399">
                <ele>8.628</ele>
            </trkpt>
            <trkpt lat="37.734385" lon="128.988179">
                <ele>7.103</ele>
            </trkpt>
            <trkpt lat="37.734381" lon="128.988174">
                <ele>7.081</ele>
            </trkpt>
            <trkpt lat="37.734238" lon="128.987977">
                <ele>6.25</ele>
            </trkpt>
            <trkpt lat="37.734118" lon="128.987837">
                <ele>5.814</ele>
            </trkpt>
            <trkpt lat="37.733968" lon="128.987748">
                <ele>6.247</ele>
            </trkpt>
            <trkpt lat="37.73381" lon="128.987724">
                <ele>7.126</ele>
            </trkpt>
            <trkpt lat="37.733636" lon="128.987651">
                <ele>7.492</ele>
            </trkpt>
            <trkpt lat="37.733448" lon="128.987693">
                <ele>8.084</ele>
            </trkpt>
            <trkpt lat="37.733272" lon="128.987737">
                <ele>8.339</ele>
            </trkpt>
            <trkpt lat="37.733134" lon="128.98772">
                <ele>7.658</ele>
            </trkpt>
            <trkpt lat="37.733023" lon="128.987663">
                <ele>6.857</ele>
            </trkpt>
            <trkpt lat="37.73289" lon="128.98763">
                <ele>7.038</ele>
            </trkpt>
            <trkpt lat="37.732601" lon="128.987556">
                <ele>7.966</ele>
            </trkpt>
            <trkpt lat="37.73264" lon="128.987458">
                <ele>7.194</ele>
            </trkpt>
            <trkpt lat="37.732765" lon="128.987293">
                <ele>5.556</ele>
            </trkpt>
            <trkpt lat="37.732983" lon="128.986979">
                <ele>3.386</ele>
            </trkpt>
            <trkpt lat="37.733201" lon="128.986665">
                <ele>3.518</ele>
            </trkpt>
            <trkpt lat="37.733431" lon="128.986315">
                <ele>2.734</ele>
            </trkpt>
            <trkpt lat="37.733662" lon="128.985965">
                <ele>1.474</ele>
            </trkpt>
            <trkpt lat="37.733913" lon="128.985592">
                <ele>1.0</ele>
            </trkpt>
            <trkpt lat="37.734164" lon="128.98522">
                <ele>1.0</ele>
            </trkpt>
            <trkpt lat="37.734379" lon="128.984902">
                <ele>0.152</ele>
            </trkpt>
            <trkpt lat="37.734595" lon="128.984584">
                <ele>0.0</ele>
            </trkpt>
            <trkpt lat="37.734869" lon="128.984156">
                <ele>3.057</ele>
            </trkpt>
            <trkpt lat="37.735025" lon="128.983886">
                <ele>3.9</ele>
            </trkpt>
            <trkpt lat="37.734805" lon="128.983895">
                <ele>2.596</ele>
            </trkpt>
            <trkpt lat="37.734545" lon="128.983914">
                <ele>1.304</ele>
            </trkpt>
            <trkpt lat="37.734284" lon="128.983933">
                <ele>0.933</ele>
            </trkpt>
            <trkpt lat="37.734033" lon="128.983933">
                <ele>1.0</ele>
            </trkpt>
            <trkpt lat="37.733754" lon="128.983878">
                <ele>1.448</ele>
            </trkpt>
            <trkpt lat="37.733489" lon="128.983767">
                <ele>1.122</ele>
            </trkpt>
            <trkpt lat="37.733281" lon="128.983646">
                <ele>0.228</ele>
            </trkpt>
            <trkpt lat="37.733104" lon="128.983503">
                <ele>-0.389</ele>
            </trkpt>
            <trkpt lat="37.732905" lon="128.983302">
                <ele>-0.458</ele>
            </trkpt>
            <trkpt lat="37.732705" lon="128.983102">
                <ele>0.262</ele>
            </trkpt>
            <trkpt lat="37.732491" lon="128.982889">
                <ele>1.0</ele>
            </trkpt>
            <trkpt lat="37.732277" lon="128.982676">
                <ele>0.928</ele>
            </trkpt>
            <trkpt lat="37.732015" lon="128.982451">
                <ele>0.955</ele>
            </trkpt>
            <trkpt lat="37.731753" lon="128.982227">
                <ele>0.311</ele>
            </trkpt>
            <trkpt lat="37.7314" lon="128.98194">
                <ele>0.04</ele>
            </trkpt>
            <trkpt lat="37.731047" lon="128.981652">
                <ele>1.449</ele>
            </trkpt>
            <trkpt lat="37.730679" lon="128.981436">
                <ele>2.725</ele>
            </trkpt>
            <trkpt lat="37.730311" lon="128.981219">
                <ele>2.927</ele>
            </trkpt>
            <trkpt lat="37.73007" lon="128.981089">
                <ele>3.0</ele>
            </trkpt>
            <trkpt lat="37.729829" lon="128.980959">
                <ele>3.0</ele>
            </trkpt>
            <trkpt lat="37.729458" lon="128.980831">
                <ele>3.0</ele>
            </trkpt>
            <trkpt lat="37.729086" lon="128.980703">
                <ele>3.0</ele>
            </trkpt>
            <trkpt lat="37.728930236" lon="128.980653897">
                <ele>3.0</ele>
            </trkpt>
            <trkpt lat="37.728783513" lon="128.980611515">
                <ele>3.532</ele>
            </trkpt>
            <trkpt lat="37.728646726" lon="128.980564694">
                <ele>3.929</ele>
            </trkpt>
            <trkpt lat="37.728422611" lon="128.980512954">
                <ele>4.996</ele>
            </trkpt>
            <trkpt lat="37.728358602" lon="128.980601354">
                <ele>6.448</ele>
            </trkpt>
            <trkpt lat="37.728233084" lon="128.980136079">
                <ele>2.843</ele>
            </trkpt>
            <trkpt lat="37.728138038" lon="128.979780998">
                <ele>2.554</ele>
            </trkpt>
            <trkpt lat="37.728074333" lon="128.979547675">
                <ele>3.603</ele>
            </trkpt>
            <trkpt lat="37.727965" lon="128.979447">
                <ele>4.317</ele>
            </trkpt>
            <trkpt lat="37.727669" lon="128.979426">
                <ele>5.392</ele>
            </trkpt>
            <trkpt lat="37.727373" lon="128.979405">
                <ele>6.457</ele>
            </trkpt>
            <trkpt lat="37.726934" lon="128.979347">
                <ele>5.925</ele>
            </trkpt>
            <trkpt lat="37.726495" lon="128.979289">
                <ele>4.0</ele>
            </trkpt>
            <trkpt lat="37.726055" lon="128.97923">
                <ele>4.182</ele>
            </trkpt>
            <trkpt lat="37.725629" lon="128.979143">
                <ele>3.977</ele>
            </trkpt>
            <trkpt lat="37.725202" lon="128.979055">
                <ele>3.837</ele>
            </trkpt>
            <trkpt lat="37.724927" lon="128.978977">
                <ele>3.42</ele>
            </trkpt>
            <trkpt lat="37.724652" lon="128.978899">
                <ele>3.207</ele>
            </trkpt>
            <trkpt lat="37.724409" lon="128.978816">
                <ele>3.939</ele>
            </trkpt>
            <trkpt lat="37.724167" lon="128.978732">
                <ele>4.129</ele>
            </trkpt>
            <trkpt lat="37.723911" lon="128.978519">
                <ele>4.385</ele>
            </trkpt>
            <trkpt lat="37.723647" lon="128.978119">
                <ele>4.801</ele>
            </trkpt>
            <trkpt lat="37.723435" lon="128.977686">
                <ele>5.245</ele>
            </trkpt>
            <trkpt lat="37.723349" lon="128.977377">
                <ele>4.582</ele>
            </trkpt>
            <trkpt lat="37.723264" lon="128.977068">
                <ele>3.75</ele>
            </trkpt>
            <trkpt lat="37.723131" lon="128.976582">
                <ele>4.388</ele>
            </trkpt>
            <trkpt lat="37.722998" lon="128.976096">
                <ele>5.738</ele>
            </trkpt>
            <trkpt lat="37.722927" lon="128.975704">
                <ele>4.287</ele>
            </trkpt>
            <trkpt lat="37.722857" lon="128.975312">
                <ele>4.0</ele>
            </trkpt>
            <trkpt lat="37.722825" lon="128.974974">
                <ele>4.846</ele>
            </trkpt>
            <trkpt lat="37.722794" lon="128.974636">
                <ele>5.018</ele>
            </trkpt>
            <trkpt lat="37.722754" lon="128.974163">
                <ele>5.0</ele>
            </trkpt>
            <trkpt lat="37.722714" lon="128.973689">
                <ele>5.0</ele>
            </trkpt>
            <trkpt lat="37.722551" lon="128.973714">
                <ele>5.0</ele>
            </trkpt>
            <trkpt lat="37.722262" lon="128.973758">
                <ele>5.453</ele>
            </trkpt>
            <trkpt lat="37.721973" lon="128.973801">
                <ele>5.967</ele>
            </trkpt>
            <trkpt lat="37.721936" lon="128.973485">
                <ele>5.56</ele>
            </trkpt>
            <trkpt lat="37.7219" lon="128.973169">
                <ele>5.16</ele>
            </trkpt>
            <trkpt lat="37.721894" lon="128.972843">
                <ele>5.043</ele>
            </trkpt>
            <trkpt lat="37.721889" lon="128.972517">
                <ele>5.0</ele>
            </trkpt>
            <trkpt lat="37.721907" lon="128.972218">
                <ele>4.985</ele>
            </trkpt>
            <trkpt lat="37.721925" lon="128.971919">
                <ele>4.085</ele>
            </trkpt>
            <trkpt lat="37.721964" lon="128.971637">
                <ele>5.24</ele>
            </trkpt>
            <trkpt lat="37.722004" lon="128.971354">
                <ele>6.313</ele>
            </trkpt>
            <trkpt lat="37.722105" lon="128.970804">
                <ele>7.0</ele>
            </trkpt>
            <trkpt lat="37.722256" lon="128.970354">
                <ele>7.0</ele>
            </trkpt>
            <trkpt lat="37.722392" lon="128.970095">
                <ele>7.256</ele>
            </trkpt>
            <trkpt lat="37.722687" lon="128.969728">
                <ele>7.64</ele>
            </trkpt>
            <trkpt lat="37.722987" lon="128.969455">
                <ele>7.237</ele>
            </trkpt>
            <trkpt lat="37.723248" lon="128.969224">
                <ele>6.899</ele>
            </trkpt>
            <trkpt lat="37.723531" lon="128.968969">
                <ele>7.506</ele>
            </trkpt>
            <trkpt lat="37.723815" lon="128.968714">
                <ele>8.734</ele>
            </trkpt>
            <trkpt lat="37.724056" lon="128.968472">
                <ele>10.102</ele>
            </trkpt>
            <trkpt lat="37.724168" lon="128.968245">
                <ele>11.006</ele>
            </trkpt>
            <trkpt lat="37.724243" lon="128.967964">
                <ele>11.55</ele>
            </trkpt>
            <trkpt lat="37.724265" lon="128.967684">
                <ele>11.251</ele>
            </trkpt>
            <trkpt lat="37.724218" lon="128.967413">
                <ele>9.872</ele>
            </trkpt>
            <trkpt lat="37.724139" lon="128.96718">
                <ele>9.1</ele>
            </trkpt>
            <trkpt lat="37.724086" lon="128.967082">
                <ele>9.29</ele>
            </trkpt>
            <trkpt lat="37.7242" lon="128.966942">
                <ele>9.0</ele>
            </trkpt>
            <trkpt lat="37.724416" lon="128.966661">
                <ele>9.0</ele>
            </trkpt>
            <trkpt lat="37.724631" lon="128.966381">
                <ele>10.372</ele>
            </trkpt>
            <trkpt lat="37.724349" lon="128.966144">
                <ele>9.579</ele>
            </trkpt>
            <trkpt lat="37.724135" lon="128.965904">
                <ele>10.406</ele>
            </trkpt>
            <trkpt lat="37.724081" lon="128.965845">
                <ele>10.621</ele>
            </trkpt>
            <trkpt lat="37.724338" lon="128.965428">
                <ele>14.9</ele>
            </trkpt>
            <trkpt lat="37.724526" lon="128.965067">
                <ele>14.928</ele>
            </trkpt>
            <trkpt lat="37.724714" lon="128.964705">
                <ele>14.881</ele>
            </trkpt>
            <trkpt lat="37.724808" lon="128.964457">
                <ele>14.354</ele>
            </trkpt>
            <trkpt lat="37.724506" lon="128.964195">
                <ele>14.12</ele>
            </trkpt>
            <trkpt lat="37.724205" lon="128.963933">
                <ele>14.841</ele>
            </trkpt>
            <trkpt lat="37.72393" lon="128.9637">
                <ele>15.101</ele>
            </trkpt>
            <trkpt lat="37.723656" lon="128.963467">
                <ele>14.565</ele>
            </trkpt>
            <trkpt lat="37.723803" lon="128.963216">
                <ele>14.983</ele>
            </trkpt>
            <trkpt lat="37.723979" lon="128.963006">
                <ele>16.146</ele>
            </trkpt>
            <trkpt lat="37.724135" lon="128.962842">
                <ele>16.117</ele>
            </trkpt>
            <trkpt lat="37.724222" lon="128.962716">
                <ele>15.977</ele>
            </trkpt>
            <trkpt lat="37.72412" lon="128.962492">
                <ele>14.832</ele>
            </trkpt>
            <trkpt lat="37.724027" lon="128.962325">
                <ele>14.497</ele>
            </trkpt>
            <trkpt lat="37.72388" lon="128.962297">
                <ele>14.0</ele>
            </trkpt>
            <trkpt lat="37.723646" lon="128.962002">
                <ele>14.1</ele>
            </trkpt>
            <trkpt lat="37.72337" lon="128.9618">
                <ele>13.721</ele>
            </trkpt>
            <trkpt lat="37.72317" lon="128.961687">
                <ele>13.382</ele>
            </trkpt>
            <trkpt lat="37.72298" lon="128.961596">
                <ele>13.526</ele>
            </trkpt>
            <trkpt lat="37.722719" lon="128.961525">
                <ele>14.614</ele>
            </trkpt>
            <trkpt lat="37.722478" lon="128.961516">
                <ele>15.0</ele>
            </trkpt>
            <trkpt lat="37.722114" lon="128.961497">
                <ele>15.39</ele>
            </trkpt>
            <trkpt lat="37.721839" lon="128.961507">
                <ele>16.38</ele>
            </trkpt>
            <trkpt lat="37.721529" lon="128.961538">
                <ele>17.0</ele>
            </trkpt>
            <trkpt lat="37.721289" lon="128.96165">
                <ele>16.64</ele>
            </trkpt>
            <trkpt lat="37.721225" lon="128.961561">
                <ele>16.41</ele>
            </trkpt>
            <trkpt lat="37.721079" lon="128.961362">
                <ele>15.896</ele>
            </trkpt>
            <trkpt lat="37.721025" lon="128.961268">
                <ele>15.825</ele>
            </trkpt>
            <trkpt lat="37.720903" lon="128.961146">
                <ele>15.906</ele>
            </trkpt>
            <trkpt lat="37.720832" lon="128.961053">
                <ele>16.0</ele>
            </trkpt>
            <trkpt lat="37.720789" lon="128.960949">
                <ele>16.0</ele>
            </trkpt>
            <trkpt lat="37.720756" lon="128.960853">
                <ele>16.0</ele>
            </trkpt>
            <trkpt lat="37.720685" lon="128.96076">
                <ele>16.141</ele>
            </trkpt>
            <trkpt lat="37.720587" lon="128.960667">
                <ele>16.531</ele>
            </trkpt>
            <trkpt lat="37.720327" lon="128.960473">
                <ele>20.886</ele>
            </trkpt>
            <trkpt lat="37.720334" lon="128.959936">
                <ele>24.716</ele>
            </trkpt>
            <trkpt lat="37.720232" lon="128.959714">
                <ele>26.684</ele>
            </trkpt>
            <trkpt lat="37.720128" lon="128.95941">
                <ele>28.789</ele>
            </trkpt>
            <trkpt lat="37.720043" lon="128.959136">
                <ele>30.034</ele>
            </trkpt>
            <trkpt lat="37.71982" lon="128.958905">
                <ele>32.63</ele>
            </trkpt>
            <trkpt lat="37.719649" lon="128.958532">
                <ele>36.168</ele>
            </trkpt>
            <trkpt lat="37.719528" lon="128.958175">
                <ele>38.269</ele>
            </trkpt>
            <trkpt lat="37.719426" lon="128.957974">
                <ele>39.501</ele>
            </trkpt>
            <trkpt lat="37.719315" lon="128.957786">
                <ele>40.478</ele>
            </trkpt>
            <trkpt lat="37.719099" lon="128.957534">
                <ele>41.273</ele>
            </trkpt>
            <trkpt lat="37.718981" lon="128.957234">
                <ele>41.028</ele>
            </trkpt>
            <trkpt lat="37.718856" lon="128.95694">
                <ele>43.269</ele>
            </trkpt>
            <trkpt lat="37.71868" lon="128.95668">
                <ele>46.408</ele>
            </trkpt>
            <trkpt lat="37.718584" lon="128.956484">
                <ele>48.577</ele>
            </trkpt>
            <trkpt lat="37.718595" lon="128.956219">
                <ele>50.268</ele>
            </trkpt>
            <trkpt lat="37.718558" lon="128.955834">
                <ele>51.807</ele>
            </trkpt>
            <trkpt lat="37.718561" lon="128.955825">
                <ele>51.83</ele>
            </trkpt>
            <trkpt lat="37.718494" lon="128.955467">
                <ele>52.69</ele>
            </trkpt>
            <trkpt lat="37.718385" lon="128.955208">
                <ele>54.442</ele>
            </trkpt>
            <trkpt lat="37.718235" lon="128.954918">
                <ele>57.773</ele>
            </trkpt>
            <trkpt lat="37.718199" lon="128.954628">
                <ele>59.736</ele>
            </trkpt>
            <trkpt lat="37.71824" lon="128.954339">
                <ele>59.932</ele>
            </trkpt>
            <trkpt lat="37.718309" lon="128.954247">
                <ele>59.087</ele>
            </trkpt>
            <trkpt lat="37.718379" lon="128.954187">
                <ele>58.586</ele>
            </trkpt>
            <trkpt lat="37.718504" lon="128.954143">
                <ele>57.824</ele>
            </trkpt>
            <trkpt lat="37.718553" lon="128.954076">
                <ele>57.677</ele>
            </trkpt>
            <trkpt lat="37.718584" lon="128.954017">
                <ele>57.681</ele>
            </trkpt>
            <trkpt lat="37.718598" lon="128.95395">
                <ele>57.838</ele>
            </trkpt>
            <trkpt lat="37.718588" lon="128.953867">
                <ele>58.004</ele>
            </trkpt>
            <trkpt lat="37.718536" lon="128.953803">
                <ele>57.961</ele>
            </trkpt>
            <trkpt lat="37.718459" lon="128.953733">
                <ele>57.986</ele>
            </trkpt>
            <trkpt lat="37.718361" lon="128.953665">
                <ele>58.094</ele>
            </trkpt>
            <trkpt lat="37.71828" lon="128.953592">
                <ele>58.452</ele>
            </trkpt>
            <trkpt lat="37.718194" lon="128.953507">
                <ele>58.943</ele>
            </trkpt>
            <trkpt lat="37.718096" lon="128.953449">
                <ele>59.895</ele>
            </trkpt>
            <trkpt lat="37.718013" lon="128.95339">
                <ele>60.786</ele>
            </trkpt>
            <trkpt lat="37.717923" lon="128.95337">
                <ele>61.978</ele>
            </trkpt>
            <trkpt lat="37.717836" lon="128.953332">
                <ele>63.152</ele>
            </trkpt>
            <trkpt lat="37.717734" lon="128.953364">
                <ele>64.49</ele>
            </trkpt>
            <trkpt lat="37.717639" lon="128.953374">
                <ele>65.572</ele>
            </trkpt>
            <trkpt lat="37.717539" lon="128.953355">
                <ele>66.646</ele>
            </trkpt>
            <trkpt lat="37.717443" lon="128.953371">
                <ele>67.779</ele>
            </trkpt>
            <trkpt lat="37.717345" lon="128.953413">
                <ele>69.121</ele>
            </trkpt>
            <trkpt lat="37.717257" lon="128.953436">
                <ele>70.317</ele>
            </trkpt>
            <trkpt lat="37.71714" lon="128.953461">
                <ele>71.511</ele>
            </trkpt>
            <trkpt lat="37.717031" lon="128.953411">
                <ele>71.936</ele>
            </trkpt>
            <trkpt lat="37.716912" lon="128.953387">
                <ele>72.714</ele>
            </trkpt>
            <trkpt lat="37.716808" lon="128.953326">
                <ele>73.394</ele>
            </trkpt>
            <trkpt lat="37.716725" lon="128.953273">
                <ele>73.844</ele>
            </trkpt>
            <trkpt lat="37.716627" lon="128.953241">
                <ele>74.621</ele>
            </trkpt>
            <trkpt lat="37.716556" lon="128.953161">
                <ele>74.556</ele>
            </trkpt>
            <trkpt lat="37.716465" lon="128.953123">
                <ele>74.938</ele>
            </trkpt>
            <trkpt lat="37.71639" lon="128.953052">
                <ele>74.953</ele>
            </trkpt>
            <trkpt lat="37.716266" lon="128.953029">
                <ele>74.355</ele>
            </trkpt>
            <trkpt lat="37.716171" lon="128.952991">
                <ele>73.883</ele>
            </trkpt>
            <trkpt lat="37.716098" lon="128.952909">
                <ele>73.5</ele>
            </trkpt>
            <trkpt lat="37.716003" lon="128.952842">
                <ele>73.74</ele>
            </trkpt>
            <trkpt lat="37.715922" lon="128.952759">
                <ele>74.251</ele>
            </trkpt>
            <trkpt lat="37.71584" lon="128.952683">
                <ele>74.594</ele>
            </trkpt>
            <trkpt lat="37.715779" lon="128.952598">
                <ele>74.733</ele>
            </trkpt>
            <trkpt lat="37.715729" lon="128.952501">
                <ele>75.126</ele>
            </trkpt>
            <trkpt lat="37.715662" lon="128.952414">
                <ele>75.494</ele>
            </trkpt>
            <trkpt lat="37.715579" lon="128.952342">
                <ele>76.603</ele>
            </trkpt>
            <trkpt lat="37.71551" lon="128.95226">
                <ele>77.634</ele>
            </trkpt>
            <trkpt lat="37.71541" lon="128.95221">
                <ele>79.054</ele>
            </trkpt>
            <trkpt lat="37.715297" lon="128.952142">
                <ele>80.683</ele>
            </trkpt>
            <trkpt lat="37.715165" lon="128.952063">
                <ele>81.233</ele>
            </trkpt>
            <trkpt lat="37.715091" lon="128.951985">
                <ele>81.574</ele>
            </trkpt>
            <trkpt lat="37.715017" lon="128.951886">
                <ele>81.913</ele>
            </trkpt>
            <trkpt lat="37.714926" lon="128.951777">
                <ele>81.522</ele>
            </trkpt>
            <trkpt lat="37.714851" lon="128.951652">
                <ele>81.467</ele>
            </trkpt>
            <trkpt lat="37.71482" lon="128.951527">
                <ele>81.501</ele>
            </trkpt>
            <trkpt lat="37.714779" lon="128.951392">
                <ele>81.789</ele>
            </trkpt>
            <trkpt lat="37.714755" lon="128.95132">
                <ele>82.071</ele>
            </trkpt>
            <trkpt lat="37.714654" lon="128.951179">
                <ele>83.127</ele>
            </trkpt>
            <trkpt lat="37.714575" lon="128.951059">
                <ele>84.535</ele>
            </trkpt>
            <trkpt lat="37.71444" lon="128.950706">
                <ele>89.391</ele>
            </trkpt>
            <trkpt lat="37.714304" lon="128.950353">
                <ele>92.972</ele>
            </trkpt>
            <trkpt lat="37.714122" lon="128.949893">
                <ele>99.603</ele>
            </trkpt>
            <trkpt lat="37.714122" lon="128.949886">
                <ele>99.708</ele>
            </trkpt>
            <trkpt lat="37.714025" lon="128.949615">
                <ele>103.668</ele>
            </trkpt>
            <trkpt lat="37.713927" lon="128.949344">
                <ele>107.572</ele>
            </trkpt>
            <trkpt lat="37.71387" lon="128.948975">
                <ele>113.603</ele>
            </trkpt>
            <trkpt lat="37.713746" lon="128.948601">
                <ele>119.08</ele>
            </trkpt>
            <trkpt lat="37.713623" lon="128.948228">
                <ele>122.191</ele>
            </trkpt>
            <trkpt lat="37.713571" lon="128.947816">
                <ele>125.272</ele>
            </trkpt>
            <trkpt lat="37.713541" lon="128.947465">
                <ele>128.496</ele>
            </trkpt>
            <trkpt lat="37.713381" lon="128.947023">
                <ele>131.075</ele>
            </trkpt>
            <trkpt lat="37.713239" lon="128.946669">
                <ele>127.313</ele>
            </trkpt>
            <trkpt lat="37.713037" lon="128.946297">
                <ele>126.108</ele>
            </trkpt>
            <trkpt lat="37.712841" lon="128.945918">
                <ele>125.676</ele>
            </trkpt>
            <trkpt lat="37.712574" lon="128.945468">
                <ele>126.462</ele>
            </trkpt>
            <trkpt lat="37.712449" lon="128.944969">
                <ele>130.386</ele>
            </trkpt>
            <trkpt lat="37.712457" lon="128.944861">
                <ele>131.078</ele>
            </trkpt>
            <trkpt lat="37.712458" lon="128.944723">
                <ele>131.995</ele>
            </trkpt>
            <trkpt lat="37.71247" lon="128.944605">
                <ele>131.578</ele>
            </trkpt>
            <trkpt lat="37.712412" lon="128.944509">
                <ele>131.232</ele>
            </trkpt>
            <trkpt lat="37.71237" lon="128.944405">
                <ele>130.65</ele>
            </trkpt>
            <trkpt lat="37.712307" lon="128.944311">
                <ele>129.705</ele>
            </trkpt>
            <trkpt lat="37.712246" lon="128.944207">
                <ele>128.509</ele>
            </trkpt>
            <trkpt lat="37.712188" lon="128.944099">
                <ele>127.053</ele>
            </trkpt>
            <trkpt lat="37.712125" lon="128.944017">
                <ele>125.872</ele>
            </trkpt>
            <trkpt lat="37.712063" lon="128.943909">
                <ele>124.603</ele>
            </trkpt>
            <trkpt lat="37.712002" lon="128.943879">
                <ele>124.086</ele>
            </trkpt>
            <trkpt lat="37.711913" lon="128.943865">
                <ele>123.422</ele>
            </trkpt>
            <trkpt lat="37.711827" lon="128.94382">
                <ele>122.197</ele>
            </trkpt>
            <trkpt lat="37.711775" lon="128.943726">
                <ele>121.126</ele>
            </trkpt>
            <trkpt lat="37.711703" lon="128.94365">
                <ele>120.307</ele>
            </trkpt>
            <trkpt lat="37.711628" lon="128.943578">
                <ele>119.377</ele>
            </trkpt>
            <trkpt lat="37.711572" lon="128.943471">
                <ele>118.313</ele>
            </trkpt>
            <trkpt lat="37.711543" lon="128.943356">
                <ele>117.645</ele>
            </trkpt>
            <trkpt lat="37.711463" lon="128.94327">
                <ele>116.978</ele>
            </trkpt>
            <trkpt lat="37.711375" lon="128.943211">
                <ele>116.46</ele>
            </trkpt>
            <trkpt lat="37.711286" lon="128.943144">
                <ele>115.578</ele>
            </trkpt>
            <trkpt lat="37.711227" lon="128.943053">
                <ele>114.812</ele>
            </trkpt>
            <trkpt lat="37.711153" lon="128.942986">
                <ele>113.763</ele>
            </trkpt>
            <trkpt lat="37.711085" lon="128.942928">
                <ele>112.756</ele>
            </trkpt>
            <trkpt lat="37.710977" lon="128.942947">
                <ele>111.581</ele>
            </trkpt>
            <trkpt lat="37.710849" lon="128.94298">
                <ele>110.369</ele>
            </trkpt>
            <trkpt lat="37.710795" lon="128.942961">
                <ele>109.383</ele>
            </trkpt>
            <trkpt lat="37.710633" lon="128.942906">
                <ele>106.555</ele>
            </trkpt>
            <trkpt lat="37.710539" lon="128.942781">
                <ele>104.832</ele>
            </trkpt>
            <trkpt lat="37.710479" lon="128.9426">
                <ele>103.07</ele>
            </trkpt>
            <trkpt lat="37.710407" lon="128.942532">
                <ele>102.099</ele>
            </trkpt>
            <trkpt lat="37.710328" lon="128.942465">
                <ele>101.087</ele>
            </trkpt>
            <trkpt lat="37.710262" lon="128.942383">
                <ele>100.149</ele>
            </trkpt>
            <trkpt lat="37.710209" lon="128.942256">
                <ele>99.431</ele>
            </trkpt>
            <trkpt lat="37.710144" lon="128.942196">
                <ele>99.24</ele>
            </trkpt>
            <trkpt lat="37.710072" lon="128.942121">
                <ele>99.093</ele>
            </trkpt>
            <trkpt lat="37.709995" lon="128.942057">
                <ele>99.463</ele>
            </trkpt>
            <trkpt lat="37.709905" lon="128.941998">
                <ele>100.429</ele>
            </trkpt>
            <trkpt lat="37.70982" lon="128.941959">
                <ele>101.576</ele>
            </trkpt>
            <trkpt lat="37.709734" lon="128.941921">
                <ele>102.658</ele>
            </trkpt>
            <trkpt lat="37.709649" lon="128.941873">
                <ele>104.135</ele>
            </trkpt>
            <trkpt lat="37.70956" lon="128.94181">
                <ele>105.819</ele>
            </trkpt>
            <trkpt lat="37.709479" lon="128.941758">
                <ele>107.499</ele>
            </trkpt>
            <trkpt lat="37.709387" lon="128.941738">
                <ele>109.031</ele>
            </trkpt>
            <trkpt lat="37.709299" lon="128.94177">
                <ele>110.272</ele>
            </trkpt>
            <trkpt lat="37.709197" lon="128.941795">
                <ele>111.614</ele>
            </trkpt>
            <trkpt lat="37.7091" lon="128.941785">
                <ele>111.658</ele>
            </trkpt>
            <trkpt lat="37.709005" lon="128.941775">
                <ele>111.191</ele>
            </trkpt>
            <trkpt lat="37.708917" lon="128.941809">
                <ele>110.641</ele>
            </trkpt>
            <trkpt lat="37.708826" lon="128.941831">
                <ele>109.637</ele>
            </trkpt>
            <trkpt lat="37.708735" lon="128.941863">
                <ele>108.469</ele>
            </trkpt>
            <trkpt lat="37.708635" lon="128.941871">
                <ele>107.281</ele>
            </trkpt>
            <trkpt lat="37.708543" lon="128.941876">
                <ele>106.264</ele>
            </trkpt>
            <trkpt lat="37.708447" lon="128.941893">
                <ele>105.228</ele>
            </trkpt>
            <trkpt lat="37.708347" lon="128.941872">
                <ele>104.148</ele>
            </trkpt>
            <trkpt lat="37.708249" lon="128.941832">
                <ele>103.089</ele>
            </trkpt>
            <trkpt lat="37.708161" lon="128.9418">
                <ele>102.139</ele>
            </trkpt>
            <trkpt lat="37.708096" lon="128.941713">
                <ele>101.437</ele>
            </trkpt>
            <trkpt lat="37.708022" lon="128.941627">
                <ele>100.616</ele>
            </trkpt>
            <trkpt lat="37.707957" lon="128.941529">
                <ele>99.795</ele>
            </trkpt>
            <trkpt lat="37.707942" lon="128.941411">
                <ele>99.262</ele>
            </trkpt>
            <trkpt lat="37.707899" lon="128.941298">
                <ele>98.403</ele>
            </trkpt>
            <trkpt lat="37.707858" lon="128.941185">
                <ele>97.632</ele>
            </trkpt>
            <trkpt lat="37.707845" lon="128.941073">
                <ele>97.176</ele>
            </trkpt>
            <trkpt lat="37.707865" lon="128.940937">
                <ele>96.92</ele>
            </trkpt>
            <trkpt lat="37.707834" lon="128.940813">
                <ele>96.856</ele>
            </trkpt>
            <trkpt lat="37.707799" lon="128.940705">
                <ele>97.35</ele>
            </trkpt>
            <trkpt lat="37.707833" lon="128.94057">
                <ele>97.561</ele>
            </trkpt>
            <trkpt lat="37.707813" lon="128.940459">
                <ele>98.745</ele>
            </trkpt>
            <trkpt lat="37.707781" lon="128.940341">
                <ele>100.285</ele>
            </trkpt>
            <trkpt lat="37.707731" lon="128.940232">
                <ele>101.326</ele>
            </trkpt>
            <trkpt lat="37.707697" lon="128.940107">
                <ele>102.554</ele>
            </trkpt>
            <trkpt lat="37.707636" lon="128.94002">
                <ele>103.274</ele>
            </trkpt>
            <trkpt lat="37.707582" lon="128.939923">
                <ele>103.572</ele>
            </trkpt>
            <trkpt lat="37.707521" lon="128.939832">
                <ele>103.68</ele>
            </trkpt>
            <trkpt lat="37.707441" lon="128.939748">
                <ele>103.482</ele>
            </trkpt>
            <trkpt lat="37.707359" lon="128.939656">
                <ele>102.75</ele>
            </trkpt>
            <trkpt lat="37.707285" lon="128.939573">
                <ele>102.209</ele>
            </trkpt>
            <trkpt lat="37.707221" lon="128.939484">
                <ele>101.999</ele>
            </trkpt>
            <trkpt lat="37.707134" lon="128.939441">
                <ele>101.999</ele>
            </trkpt>
            <trkpt lat="37.707051" lon="128.939381">
                <ele>102.194</ele>
            </trkpt>
            <trkpt lat="37.706952" lon="128.93933">
                <ele>102.79</ele>
            </trkpt>
            <trkpt lat="37.706897" lon="128.939221">
                <ele>103.575</ele>
            </trkpt>
            <trkpt lat="37.706829" lon="128.939116">
                <ele>104.076</ele>
            </trkpt>
            <trkpt lat="37.706762" lon="128.939035">
                <ele>104.311</ele>
            </trkpt>
            <trkpt lat="37.706749" lon="128.938916">
                <ele>104.635</ele>
            </trkpt>
            <trkpt lat="37.706776" lon="128.938793">
                <ele>104.199</ele>
            </trkpt>
            <trkpt lat="37.706755" lon="128.93867">
                <ele>103.93</ele>
            </trkpt>
            <trkpt lat="37.706671" lon="128.938627">
                <ele>104.94</ele>
            </trkpt>
            <trkpt lat="37.706572" lon="128.938606">
                <ele>104.227</ele>
            </trkpt>
            <trkpt lat="37.706476" lon="128.938575">
                <ele>103.115</ele>
            </trkpt>
            <trkpt lat="37.706392" lon="128.938517">
                <ele>101.995</ele>
            </trkpt>
            <trkpt lat="37.706305" lon="128.938558">
                <ele>102.124</ele>
            </trkpt>
            <trkpt lat="37.706217" lon="128.938589">
                <ele>102.142</ele>
            </trkpt>
            <trkpt lat="37.706128" lon="128.938604">
                <ele>101.984</ele>
            </trkpt>
            <trkpt lat="37.706027" lon="128.938588">
                <ele>102.078</ele>
            </trkpt>
            <trkpt lat="37.705923" lon="128.938523">
                <ele>101.94</ele>
            </trkpt>
            <trkpt lat="37.705855" lon="128.938414">
                <ele>101.447</ele>
            </trkpt>
            <trkpt lat="37.705801" lon="128.938321">
                <ele>101.271</ele>
            </trkpt>
            <trkpt lat="37.705718" lon="128.938253">
                <ele>101.907</ele>
            </trkpt>
            <trkpt lat="37.705678" lon="128.938149">
                <ele>102.093</ele>
            </trkpt>
            <trkpt lat="37.70559" lon="128.938096">
                <ele>103.416</ele>
            </trkpt>
            <trkpt lat="37.705527" lon="128.937998">
                <ele>104.124</ele>
            </trkpt>
            <trkpt lat="37.705505" lon="128.937876">
                <ele>104.3</ele>
            </trkpt>
            <trkpt lat="37.705508" lon="128.937757">
                <ele>104.306</ele>
            </trkpt>
            <trkpt lat="37.705453" lon="128.937666">
                <ele>104.782</ele>
            </trkpt>
            <trkpt lat="37.705389" lon="128.937572">
                <ele>105.791</ele>
            </trkpt>
            <trkpt lat="37.705376" lon="128.937451">
                <ele>106.585</ele>
            </trkpt>
            <trkpt lat="37.705378" lon="128.937331">
                <ele>107.413</ele>
            </trkpt>
            <trkpt lat="37.705365" lon="128.937211">
                <ele>108.498</ele>
            </trkpt>
            <trkpt lat="37.705388" lon="128.937099">
                <ele>108.727</ele>
            </trkpt>
            <trkpt lat="37.705362" lon="128.93699">
                <ele>109.903</ele>
            </trkpt>
            <trkpt lat="37.70538" lon="128.936869">
                <ele>109.52</ele>
            </trkpt>
            <trkpt lat="37.705304" lon="128.936782">
                <ele>110.849</ele>
            </trkpt>
            <trkpt lat="37.705226" lon="128.936716">
                <ele>111.298</ele>
            </trkpt>
            <trkpt lat="37.705183" lon="128.936615">
                <ele>111.096</ele>
            </trkpt>
            <trkpt lat="37.705118" lon="128.936526">
                <ele>111.145</ele>
            </trkpt>
            <trkpt lat="37.705025" lon="128.936509">
                <ele>111.808</ele>
            </trkpt>
            <trkpt lat="37.704957" lon="128.936414">
                <ele>112.113</ele>
            </trkpt>
            <trkpt lat="37.704882" lon="128.936336">
                <ele>112.558</ele>
            </trkpt>
            <trkpt lat="37.704845" lon="128.936232">
                <ele>113.254</ele>
            </trkpt>
            <trkpt lat="37.704757" lon="128.936168">
                <ele>114.862</ele>
            </trkpt>
            <trkpt lat="37.70472" lon="128.936047">
                <ele>116.486</ele>
            </trkpt>
            <trkpt lat="37.704708" lon="128.935919">
                <ele>117.537</ele>
            </trkpt>
            <trkpt lat="37.704622" lon="128.935878">
                <ele>118.761</ele>
            </trkpt>
            <trkpt lat="37.704531" lon="128.93583">
                <ele>120.058</ele>
            </trkpt>
            <trkpt lat="37.704445" lon="128.935775">
                <ele>120.993</ele>
            </trkpt>
            <trkpt lat="37.704408" lon="128.935662">
                <ele>120.738</ele>
            </trkpt>
            <trkpt lat="37.704362" lon="128.935558">
                <ele>120.406</ele>
            </trkpt>
            <trkpt lat="37.704307" lon="128.935438">
                <ele>118.099</ele>
            </trkpt>
            <trkpt lat="37.704266" lon="128.935337">
                <ele>116.511</ele>
            </trkpt>
            <trkpt lat="37.704194" lon="128.935261">
                <ele>115.588</ele>
            </trkpt>
            <trkpt lat="37.704113" lon="128.93521">
                <ele>114.389</ele>
            </trkpt>
            <trkpt lat="37.704032" lon="128.935126">
                <ele>112.873</ele>
            </trkpt>
            <trkpt lat="37.703945" lon="128.935079">
                <ele>112.312</ele>
            </trkpt>
            <trkpt lat="37.703844" lon="128.93505">
                <ele>111.828</ele>
            </trkpt>
            <trkpt lat="37.703771" lon="128.93498">
                <ele>110.996</ele>
            </trkpt>
            <trkpt lat="37.703687" lon="128.934904">
                <ele>110.012</ele>
            </trkpt>
            <trkpt lat="37.703622" lon="128.934826">
                <ele>109.403</ele>
            </trkpt>
            <trkpt lat="37.703542" lon="128.934765">
                <ele>108.541</ele>
            </trkpt>
            <trkpt lat="37.703459" lon="128.934685">
                <ele>107.784</ele>
            </trkpt>
            <trkpt lat="37.703377" lon="128.934621">
                <ele>107.2</ele>
            </trkpt>
            <trkpt lat="37.703318" lon="128.934528">
                <ele>106.95</ele>
            </trkpt>
            <trkpt lat="37.703237" lon="128.934454">
                <ele>106.964</ele>
            </trkpt>
            <trkpt lat="37.703149" lon="128.934394">
                <ele>106.696</ele>
            </trkpt>
            <trkpt lat="37.703054" lon="128.934364">
                <ele>106.708</ele>
            </trkpt>
            <trkpt lat="37.703013" lon="128.93425">
                <ele>106.361</ele>
            </trkpt>
            <trkpt lat="37.702915" lon="128.934219">
                <ele>106.504</ele>
            </trkpt>
            <trkpt lat="37.702834" lon="128.934139">
                <ele>106.658</ele>
            </trkpt>
            <trkpt lat="37.702757" lon="128.934079">
                <ele>106.755</ele>
            </trkpt>
            <trkpt lat="37.702751" lon="128.934127">
                <ele>106.898</ele>
            </trkpt>
            <trkpt lat="37.702676" lon="128.934126">
                <ele>107.015</ele>
            </trkpt>
            <trkpt lat="37.70256" lon="128.93408">
                <ele>107.422</ele>
            </trkpt>
            <trkpt lat="37.702341" lon="128.933984">
                <ele>109.264</ele>
            </trkpt>
            <trkpt lat="37.701952" lon="128.933779">
                <ele>113.341</ele>
            </trkpt>
            <trkpt lat="37.701731" lon="128.9337">
                <ele>115.985</ele>
            </trkpt>
            <trkpt lat="37.701573" lon="128.933604">
                <ele>117.632</ele>
            </trkpt>
            <trkpt lat="37.70133" lon="128.933505">
                <ele>119.042</ele>
            </trkpt>
            <trkpt lat="37.701096" lon="128.933661">
                <ele>120.712</ele>
            </trkpt>
            <trkpt lat="37.700932" lon="128.93357">
                <ele>119.753</ele>
            </trkpt>
            <trkpt lat="37.700833" lon="128.933418">
                <ele>119.69</ele>
            </trkpt>
            <trkpt lat="37.700736" lon="128.933135">
                <ele>118.635</ele>
            </trkpt>
            <trkpt lat="37.700681" lon="128.933041">
                <ele>118.514</ele>
            </trkpt>
            <trkpt lat="37.700513" lon="128.93273">
                <ele>121.098</ele>
            </trkpt>
            <trkpt lat="37.700416" lon="128.932634">
                <ele>121.795</ele>
            </trkpt>
            <trkpt lat="37.700337" lon="128.93234">
                <ele>124.48</ele>
            </trkpt>
            <trkpt lat="37.700222" lon="128.932173">
                <ele>126.827</ele>
            </trkpt>
            <trkpt lat="37.700061" lon="128.932056">
                <ele>129.692</ele>
            </trkpt>
            <trkpt lat="37.699987" lon="128.931918">
                <ele>132.43</ele>
            </trkpt>
            <trkpt lat="37.699893" lon="128.931832">
                <ele>134.526</ele>
            </trkpt>
            <trkpt lat="37.699735" lon="128.93178">
                <ele>137.203</ele>
            </trkpt>
            <trkpt lat="37.699481" lon="128.931535">
                <ele>137.675</ele>
            </trkpt>
            <trkpt lat="37.699371" lon="128.931301">
                <ele>137.458</ele>
            </trkpt>
            <trkpt lat="37.699374" lon="128.931245">
                <ele>137.633</ele>
            </trkpt>
            <trkpt lat="37.699351" lon="128.931108">
                <ele>137.989</ele>
            </trkpt>
            <trkpt lat="37.699263" lon="128.930942">
                <ele>137.975</ele>
            </trkpt>
            <trkpt lat="37.699023" lon="128.930771">
                <ele>139.702</ele>
            </trkpt>
            <trkpt lat="37.698943" lon="128.930699">
                <ele>140.033</ele>
            </trkpt>
            <trkpt lat="37.698816" lon="128.930629">
                <ele>140.319</ele>
            </trkpt>
            <trkpt lat="37.6987" lon="128.930662">
                <ele>140.281</ele>
            </trkpt>
            <trkpt lat="37.69835" lon="128.930563">
                <ele>137.212</ele>
            </trkpt>
            <trkpt lat="37.698167" lon="128.930538">
                <ele>136.949</ele>
            </trkpt>
            <trkpt lat="37.698072" lon="128.930475">
                <ele>136.966</ele>
            </trkpt>
            <trkpt lat="37.69791" lon="128.930382">
                <ele>136.803</ele>
            </trkpt>
            <trkpt lat="37.697725" lon="128.930226">
                <ele>136.318</ele>
            </trkpt>
            <trkpt lat="37.697553" lon="128.929963">
                <ele>134.708</ele>
            </trkpt>
            <trkpt lat="37.697534" lon="128.929796">
                <ele>133.441</ele>
            </trkpt>
            <trkpt lat="37.697455" lon="128.929496">
                <ele>130.233</ele>
            </trkpt>
            <trkpt lat="37.697347" lon="128.929306">
                <ele>126.905</ele>
            </trkpt>
            <trkpt lat="37.697352" lon="128.92905">
                <ele>122.638</ele>
            </trkpt>
            <trkpt lat="37.697352" lon="128.929036">
                <ele>122.363</ele>
            </trkpt>
            <trkpt lat="37.697428" lon="128.928777">
                <ele>118.831</ele>
            </trkpt>
            <trkpt lat="37.697494" lon="128.928642">
                <ele>118.182</ele>
            </trkpt>
            <trkpt lat="37.69751" lon="128.92847">
                <ele>116.912</ele>
            </trkpt>
            <trkpt lat="37.697493" lon="128.928318">
                <ele>115.921</ele>
            </trkpt>
            <trkpt lat="37.697421" lon="128.928168">
                <ele>115.29</ele>
            </trkpt>
            <trkpt lat="37.697289" lon="128.927958">
                <ele>114.831</ele>
            </trkpt>
            <trkpt lat="37.697151" lon="128.927773">
                <ele>113.949</ele>
            </trkpt>
            <trkpt lat="37.69702" lon="128.927663">
                <ele>111.863</ele>
            </trkpt>
            <trkpt lat="37.696838" lon="128.927551">
                <ele>109.326</ele>
            </trkpt>
            <trkpt lat="37.696468" lon="128.927463">
                <ele>105.855</ele>
            </trkpt>
            <trkpt lat="37.696392" lon="128.927399">
                <ele>106.101</ele>
            </trkpt>
            <trkpt lat="37.696203" lon="128.927161">
                <ele>107.846</ele>
            </trkpt>
            <trkpt lat="37.696059" lon="128.926947">
                <ele>109.972</ele>
            </trkpt>
            <trkpt lat="37.695862" lon="128.926982">
                <ele>109.594</ele>
            </trkpt>
            <trkpt lat="37.695771" lon="128.926874">
                <ele>110.311</ele>
            </trkpt>
            <trkpt lat="37.695724" lon="128.926855">
                <ele>110.449</ele>
            </trkpt>
            <trkpt lat="37.695539" lon="128.926907">
                <ele>110.166</ele>
            </trkpt>
            <trkpt lat="37.69535" lon="128.926917">
                <ele>108.864</ele>
            </trkpt>
            <trkpt lat="37.695301" lon="128.926839">
                <ele>109.622</ele>
            </trkpt>
            <trkpt lat="37.695269" lon="128.926636">
                <ele>112.811</ele>
            </trkpt>
            <trkpt lat="37.69522" lon="128.926626">
                <ele>113.294</ele>
            </trkpt>
            <trkpt lat="37.695121" lon="128.926619">
                <ele>113.959</ele>
            </trkpt>
            <trkpt lat="37.694979" lon="128.926625">
                <ele>114.758</ele>
            </trkpt>
            <trkpt lat="37.694799" lon="128.926669">
                <ele>117.285</ele>
            </trkpt>
            <trkpt lat="37.694754" lon="128.926542">
                <ele>120.763</ele>
            </trkpt>
            <trkpt lat="37.694692" lon="128.926333">
                <ele>124.516</ele>
            </trkpt>
            <trkpt lat="37.694661" lon="128.926195">
                <ele>125.479</ele>
            </trkpt>
            <trkpt lat="37.694683" lon="128.926059">
                <ele>126.784</ele>
            </trkpt>
            <trkpt lat="37.694737" lon="128.926024">
                <ele>127.784</ele>
            </trkpt>
            <trkpt lat="37.694871" lon="128.925984">
                <ele>129.722</ele>
            </trkpt>
            <trkpt lat="37.694936" lon="128.925947">
                <ele>131.085</ele>
            </trkpt>
            <trkpt lat="37.695006" lon="128.925762">
                <ele>134.492</ele>
            </trkpt>
            <trkpt lat="37.69501" lon="128.925762">
                <ele>134.478</ele>
            </trkpt>
            <trkpt lat="37.695002" lon="128.92558">
                <ele>135.817</ele>
            </trkpt>
            <trkpt lat="37.694923" lon="128.925418">
                <ele>136.651</ele>
            </trkpt>
            <trkpt lat="37.694859" lon="128.925238">
                <ele>138.344</ele>
            </trkpt>
            <trkpt lat="37.694804" lon="128.924881">
                <ele>141.706</ele>
            </trkpt>
            <trkpt lat="37.694798" lon="128.924617">
                <ele>143.546</ele>
            </trkpt>
            <trkpt lat="37.694822" lon="128.924457">
                <ele>143.718</ele>
            </trkpt>
            <trkpt lat="37.694852" lon="128.924141">
                <ele>143.381</ele>
            </trkpt>
            <trkpt lat="37.694777" lon="128.923984">
                <ele>142.938</ele>
            </trkpt>
            <trkpt lat="37.694704" lon="128.923674">
                <ele>142.08</ele>
            </trkpt>
            <trkpt lat="37.694677" lon="128.923466">
                <ele>140.715</ele>
            </trkpt>
            <trkpt lat="37.694575" lon="128.923345">
                <ele>139.532</ele>
            </trkpt>
            <trkpt lat="37.69457" lon="128.923345">
                <ele>139.513</ele>
            </trkpt>
            <trkpt lat="37.694391" lon="128.92324">
                <ele>137.736</ele>
            </trkpt>
            <trkpt lat="37.694273" lon="128.923134">
                <ele>136.499</ele>
            </trkpt>
            <trkpt lat="37.694155" lon="128.923006">
                <ele>135.735</ele>
            </trkpt>
            <trkpt lat="37.693993" lon="128.922928">
                <ele>136.619</ele>
            </trkpt>
            <trkpt lat="37.693677" lon="128.922794">
                <ele>139.124</ele>
            </trkpt>
            <trkpt lat="37.693486" lon="128.92262">
                <ele>140.885</ele>
            </trkpt>
            <trkpt lat="37.693412" lon="128.922367">
                <ele>141.819</ele>
            </trkpt>
            <trkpt lat="37.693355" lon="128.922292">
                <ele>142.037</ele>
            </trkpt>
            <trkpt lat="37.693212" lon="128.922277">
                <ele>142.812</ele>
            </trkpt>
            <trkpt lat="37.693074" lon="128.922289">
                <ele>143.434</ele>
            </trkpt>
            <trkpt lat="37.692885" lon="128.922163">
                <ele>143.54</ele>
            </trkpt>
            <trkpt lat="37.692644" lon="128.921984">
                <ele>143.281</ele>
            </trkpt>
            <trkpt lat="37.692479" lon="128.921747">
                <ele>145.712</ele>
            </trkpt>
            <trkpt lat="37.692244" lon="128.921554">
                <ele>152.509</ele>
            </trkpt>
            <trkpt lat="37.692063" lon="128.921307">
                <ele>162.573</ele>
            </trkpt>
            <trkpt lat="37.691765" lon="128.921276">
                <ele>169.538</ele>
            </trkpt>
            <trkpt lat="37.691523" lon="128.921055">
                <ele>174.928</ele>
            </trkpt>
            <trkpt lat="37.691468" lon="128.9208">
                <ele>177.026</ele>
            </trkpt>
            <trkpt lat="37.691485" lon="128.920591">
                <ele>176.09</ele>
            </trkpt>
            <trkpt lat="37.691507" lon="128.92034">
                <ele>175.162</ele>
            </trkpt>
            <trkpt lat="37.69154" lon="128.920123">
                <ele>174.746</ele>
            </trkpt>
            <trkpt lat="37.691536" lon="128.919921">
                <ele>173.961</ele>
            </trkpt>
            <trkpt lat="37.691374" lon="128.919586">
                <ele>169.824</ele>
            </trkpt>
            <trkpt lat="37.691177" lon="128.919392">
                <ele>164.149</ele>
            </trkpt>
            <trkpt lat="37.691081" lon="128.919263">
                <ele>161.062</ele>
            </trkpt>
            <trkpt lat="37.690944" lon="128.919067">
                <ele>156.976</ele>
            </trkpt>
            <trkpt lat="37.690796" lon="128.918863">
                <ele>153.249</ele>
            </trkpt>
            <trkpt lat="37.69078" lon="128.91885">
                <ele>152.918</ele>
            </trkpt>
            <trkpt lat="37.690771" lon="128.918725">
                <ele>151.232</ele>
            </trkpt>
            <trkpt lat="37.690776" lon="128.918704">
                <ele>150.993</ele>
            </trkpt>
            <trkpt lat="37.690819" lon="128.918647">
                <ele>150.452</ele>
            </trkpt>
            <trkpt lat="37.690979" lon="128.918676">
                <ele>151.179</ele>
            </trkpt>
            <trkpt lat="37.691113" lon="128.918748">
                <ele>152.96</ele>
            </trkpt>
            <trkpt lat="37.691234" lon="128.918757">
                <ele>153.384</ele>
            </trkpt>
            <trkpt lat="37.691415" lon="128.918722">
                <ele>152.7</ele>
            </trkpt>
            <trkpt lat="37.691498" lon="128.91874">
                <ele>152.855</ele>
            </trkpt>
            <trkpt lat="37.69159" lon="128.918674">
                <ele>150.861</ele>
            </trkpt>
            <trkpt lat="37.691633" lon="128.918638">
                <ele>149.799</ele>
            </trkpt>
            <trkpt lat="37.691717" lon="128.918475">
                <ele>145.296</ele>
            </trkpt>
            <trkpt lat="37.691885" lon="128.918343">
                <ele>141.43</ele>
            </trkpt>
            <trkpt lat="37.692012" lon="128.918158">
                <ele>136.97</ele>
            </trkpt>
            <trkpt lat="37.692144" lon="128.917916">
                <ele>131.345</ele>
            </trkpt>
            <trkpt lat="37.692215" lon="128.917872">
                <ele>130.67</ele>
            </trkpt>
            <trkpt lat="37.692412" lon="128.917807">
                <ele>127.333</ele>
            </trkpt>
            <trkpt lat="37.692575" lon="128.91771">
                <ele>124.01</ele>
            </trkpt>
            <trkpt lat="37.692687" lon="128.917602">
                <ele>121.202</ele>
            </trkpt>
            <trkpt lat="37.692806" lon="128.917479">
                <ele>118.325</ele>
            </trkpt>
            <trkpt lat="37.69284" lon="128.917277">
                <ele>114.494</ele>
            </trkpt>
            <trkpt lat="37.692812" lon="128.917048">
                <ele>109.44</ele>
            </trkpt>
            <trkpt lat="37.692734" lon="128.916752">
                <ele>103.049</ele>
            </trkpt>
            <trkpt lat="37.692667" lon="128.916483">
                <ele>98.754</ele>
            </trkpt>
            <trkpt lat="37.692649" lon="128.916157">
                <ele>93.737</ele>
            </trkpt>
            <trkpt lat="37.6927" lon="128.916002">
                <ele>92.214</ele>
            </trkpt>
            <trkpt lat="37.692814" lon="128.915921">
                <ele>91.412</ele>
            </trkpt>
            <trkpt lat="37.692971" lon="128.915811">
                <ele>89.448</ele>
            </trkpt>
            <trkpt lat="37.693129" lon="128.915771">
                <ele>87.494</ele>
            </trkpt>
            <trkpt lat="37.693253" lon="128.915662">
                <ele>84.923</ele>
            </trkpt>
            <trkpt lat="37.693374" lon="128.915636">
                <ele>82.994</ele>
            </trkpt>
            <trkpt lat="37.693598" lon="128.915551">
                <ele>79.189</ele>
            </trkpt>
            <trkpt lat="37.693964" lon="128.915475">
                <ele>75.941</ele>
            </trkpt>
            <trkpt lat="37.694236" lon="128.915298">
                <ele>74.537</ele>
            </trkpt>
            <trkpt lat="37.694464" lon="128.914901">
                <ele>71.407</ele>
            </trkpt>
            <trkpt lat="37.694597" lon="128.914675">
                <ele>68.54</ele>
            </trkpt>
            <trkpt lat="37.69474192" lon="128.914493539">
                <ele>65.212</ele>
            </trkpt>
            <trkpt lat="37.6949069" lon="128.914145388">
                <ele>62.335</ele>
            </trkpt>
            <trkpt lat="37.695077694" lon="128.914013799">
                <ele>62.126</ele>
            </trkpt>
            <trkpt lat="37.695355066" lon="128.914071396">
                <ele>62.474</ele>
            </trkpt>
            <trkpt lat="37.695631346" lon="128.914130257">
                <ele>61.964</ele>
            </trkpt>
            <trkpt lat="37.695924119" lon="128.91415053">
                <ele>61.634</ele>
            </trkpt>
            <trkpt lat="37.695891936" lon="128.913847872">
                <ele>61.0</ele>
            </trkpt>
            <trkpt lat="37.695849606" lon="128.913546201">
                <ele>61.0</ele>
            </trkpt>
            <trkpt lat="37.695789142" lon="128.913230217">
                <ele>60.788</ele>
            </trkpt>
            <trkpt lat="37.695731535" lon="128.912940752">
                <ele>60.78</ele>
            </trkpt>
            <trkpt lat="37.695682184" lon="128.912644989">
                <ele>62.24</ele>
            </trkpt>
            <trkpt lat="37.695639339" lon="128.912278845">
                <ele>64.592</ele>
            </trkpt>
            <trkpt lat="37.695549882" lon="128.911950926">
                <ele>65.0</ele>
            </trkpt>
            <trkpt lat="37.695483221" lon="128.91158515">
                <ele>66.37</ele>
            </trkpt>
            <trkpt lat="37.695388318" lon="128.911312669">
                <ele>67.876</ele>
            </trkpt>
            <trkpt lat="37.695249828" lon="128.911026352">
                <ele>69.101</ele>
            </trkpt>
            <trkpt lat="37.695135627" lon="128.91067947">
                <ele>70.066</ele>
            </trkpt>
            <trkpt lat="37.694996417" lon="128.910387597">
                <ele>71.008</ele>
            </trkpt>
            <trkpt lat="37.694781067" lon="128.910018413">
                <ele>71.788</ele>
            </trkpt>
            <trkpt lat="37.694581611" lon="128.909644004">
                <ele>73.282</ele>
            </trkpt>
            <trkpt lat="37.69435" lon="128.909317">
                <ele>74.119</ele>
            </trkpt>
            <trkpt lat="37.694295" lon="128.909228">
                <ele>74.241</ele>
            </trkpt>
            <trkpt lat="37.694066" lon="128.908846">
                <ele>75.098</ele>
            </trkpt>
            <trkpt lat="37.693837" lon="128.908463">
                <ele>75.62</ele>
            </trkpt>
            <trkpt lat="37.693653" lon="128.908168">
                <ele>76.595</ele>
            </trkpt>
            <trkpt lat="37.693469" lon="128.907873">
                <ele>78.169</ele>
            </trkpt>
            <trkpt lat="37.693213" lon="128.907452">
                <ele>80.606</ele>
            </trkpt>
            <trkpt lat="37.692957" lon="128.90703">
                <ele>82.246</ele>
            </trkpt>
            <trkpt lat="37.692937" lon="128.906834">
                <ele>82.824</ele>
            </trkpt>
            <trkpt lat="37.692869" lon="128.906415">
                <ele>84.578</ele>
            </trkpt>
            <trkpt lat="37.692785" lon="128.905958">
                <ele>85.0</ele>
            </trkpt>
            <trkpt lat="37.692702" lon="128.905501">
                <ele>85.054</ele>
            </trkpt>
            <trkpt lat="37.69263" lon="128.905104">
                <ele>86.45</ele>
            </trkpt>
            <trkpt lat="37.692558" lon="128.904707">
                <ele>88.296</ele>
            </trkpt>
            <trkpt lat="37.692489" lon="128.904324">
                <ele>90.434</ele>
            </trkpt>
            <trkpt lat="37.692419" lon="128.903941">
                <ele>91.812</ele>
            </trkpt>
            <trkpt lat="37.692366" lon="128.903653">
                <ele>93.259</ele>
            </trkpt>
            <trkpt lat="37.692279" lon="128.903099">
                <ele>95.639</ele>
            </trkpt>
            <trkpt lat="37.692188" lon="128.90257">
                <ele>96.123</ele>
            </trkpt>
            <trkpt lat="37.692142" lon="128.902324">
                <ele>96.289</ele>
            </trkpt>
            <trkpt lat="37.691968" lon="128.901988">
                <ele>97.83</ele>
            </trkpt>
            <trkpt lat="37.691842" lon="128.901709">
                <ele>100.433</ele>
            </trkpt>
            <trkpt lat="37.691689" lon="128.901438">
                <ele>101.972</ele>
            </trkpt>
            <trkpt lat="37.691546" lon="128.90118">
                <ele>103.186</ele>
            </trkpt>
            <trkpt lat="37.691402" lon="128.900914">
                <ele>104.662</ele>
            </trkpt>
            <trkpt lat="37.691274" lon="128.900669">
                <ele>106.005</ele>
            </trkpt>
            <trkpt lat="37.691226" lon="128.900544">
                <ele>106.628</ele>
            </trkpt>
            <trkpt lat="37.691432" lon="128.900296">
                <ele>106.779</ele>
            </trkpt>
            <trkpt lat="37.691638" lon="128.900047">
                <ele>106.189</ele>
            </trkpt>
            <trkpt lat="37.691949" lon="128.90028">
                <ele>104.976</ele>
            </trkpt>
            <trkpt lat="37.691981" lon="128.900229">
                <ele>105.044</ele>
            </trkpt>
            <trkpt lat="37.692036" lon="128.900218">
                <ele>104.886</ele>
            </trkpt>
            <trkpt lat="37.692075" lon="128.899923">
                <ele>105.807</ele>
            </trkpt>
            <trkpt lat="37.692155" lon="128.899752">
                <ele>106.135</ele>
            </trkpt>
            <trkpt lat="37.692318" lon="128.899532">
                <ele>106.231</ele>
            </trkpt>
            <trkpt lat="37.692586" lon="128.899385">
                <ele>105.875</ele>
            </trkpt>
            <trkpt lat="37.692803" lon="128.899188">
                <ele>106.595</ele>
            </trkpt>
            <trkpt lat="37.692944" lon="128.899004">
                <ele>106.974</ele>
            </trkpt>
            <trkpt lat="37.693178" lon="128.898952">
                <ele>105.764</ele>
            </trkpt>
            <trkpt lat="37.69336" lon="128.898837">
                <ele>104.904</ele>
            </trkpt>
            <trkpt lat="37.693428" lon="128.898716">
                <ele>104.659</ele>
            </trkpt>
            <trkpt lat="37.693511" lon="128.898608">
                <ele>104.36</ele>
            </trkpt>
            <trkpt lat="37.693609" lon="128.898585">
                <ele>104.008</ele>
            </trkpt>
            <trkpt lat="37.693785" lon="128.898607">
                <ele>104.0</ele>
            </trkpt>
            <trkpt lat="37.693964" lon="128.898561">
                <ele>103.508</ele>
            </trkpt>
            <trkpt lat="37.694249" lon="128.89855">
                <ele>101.331</ele>
            </trkpt>
            <trkpt lat="37.694386" lon="128.898485">
                <ele>100.085</ele>
            </trkpt>
            <trkpt lat="37.694423" lon="128.89838">
                <ele>100.064</ele>
            </trkpt>
            <trkpt lat="37.694476" lon="128.898271">
                <ele>100.31</ele>
            </trkpt>
            <trkpt lat="37.694529" lon="128.898201">
                <ele>100.503</ele>
            </trkpt>
            <trkpt lat="37.69453" lon="128.898064">
                <ele>101.333</ele>
            </trkpt>
            <trkpt lat="37.694681" lon="128.897739">
                <ele>100.297</ele>
            </trkpt>
            <trkpt lat="37.694765" lon="128.897565">
                <ele>100.0</ele>
            </trkpt>
            <trkpt lat="37.694768" lon="128.897459">
                <ele>100.0</ele>
            </trkpt>
            <trkpt lat="37.694506" lon="128.897366">
                <ele>101.557</ele>
            </trkpt>
            <trkpt lat="37.69422" lon="128.897241">
                <ele>104.369</ele>
            </trkpt>
            <trkpt lat="37.693934" lon="128.897116">
                <ele>105.838</ele>
            </trkpt>
            <trkpt lat="37.693609" lon="128.89697">
                <ele>106.916</ele>
            </trkpt>
            <trkpt lat="37.693284" lon="128.896824">
                <ele>108.355</ele>
            </trkpt>
            <trkpt lat="37.692959" lon="128.896678">
                <ele>110.709</ele>
            </trkpt>
            <trkpt lat="37.692972" lon="128.896574">
                <ele>110.168</ele>
            </trkpt>
            <trkpt lat="37.693096" lon="128.896134">
                <ele>107.153</ele>
            </trkpt>
            <trkpt lat="37.693175" lon="128.895651">
                <ele>105.718</ele>
            </trkpt>
            <trkpt lat="37.693207" lon="128.895369">
                <ele>105.455</ele>
            </trkpt>
            <trkpt lat="37.693239" lon="128.895086">
                <ele>105.105</ele>
            </trkpt>
            <trkpt lat="37.693258" lon="128.894747">
                <ele>105.247</ele>
            </trkpt>
            <trkpt lat="37.693631" lon="128.894647">
                <ele>102.909</ele>
            </trkpt>
            <trkpt lat="37.69399" lon="128.894608">
                <ele>101.439</ele>
            </trkpt>
            <trkpt lat="37.694148" lon="128.894546">
                <ele>100.774</ele>
            </trkpt>
            <trkpt lat="37.69426" lon="128.89448">
                <ele>100.213</ele>
            </trkpt>
            <trkpt lat="37.694616" lon="128.89428">
                <ele>99.66</ele>
            </trkpt>
            <trkpt lat="37.694919" lon="128.894094">
                <ele>98.629</ele>
            </trkpt>
            <trkpt lat="37.695222" lon="128.893907">
                <ele>95.584</ele>
            </trkpt>
            <trkpt lat="37.695304" lon="128.893855">
                <ele>94.673</ele>
            </trkpt>
            <trkpt lat="37.695435" lon="128.893793">
                <ele>93.939</ele>
            </trkpt>
            <trkpt lat="37.695591" lon="128.893709">
                <ele>93.525</ele>
            </trkpt>
            <trkpt lat="37.695814" lon="128.893619">
                <ele>93.985</ele>
            </trkpt>
            <trkpt lat="37.696063" lon="128.893571">
                <ele>94.682</ele>
            </trkpt>
            <trkpt lat="37.696452" lon="128.893567">
                <ele>94.614</ele>
            </trkpt>
            <trkpt lat="37.696734" lon="128.893596">
                <ele>93.703</ele>
            </trkpt>
            <trkpt lat="37.696949" lon="128.89359">
                <ele>92.908</ele>
            </trkpt>
            <trkpt lat="37.697062" lon="128.893571">
                <ele>92.432</ele>
            </trkpt>
            <trkpt lat="37.697211" lon="128.893514">
                <ele>91.691</ele>
            </trkpt>
            <trkpt lat="37.69736" lon="128.893442">
                <ele>91.089</ele>
            </trkpt>
            <trkpt lat="37.697526" lon="128.893319">
                <ele>89.902</ele>
            </trkpt>
            <trkpt lat="37.697662" lon="128.893163">
                <ele>89.059</ele>
            </trkpt>
            <trkpt lat="37.697792" lon="128.892946">
                <ele>87.606</ele>
            </trkpt>
            <trkpt lat="37.697904" lon="128.892713">
                <ele>86.767</ele>
            </trkpt>
            <trkpt lat="37.698011" lon="128.892464">
                <ele>85.762</ele>
            </trkpt>
            <trkpt lat="37.698136" lon="128.892516">
                <ele>86.058</ele>
            </trkpt>
            <trkpt lat="37.698467" lon="128.892647">
                <ele>86.784</ele>
            </trkpt>
            <trkpt lat="37.698731" lon="128.89274">
                <ele>87.296</ele>
            </trkpt>
            <trkpt lat="37.698996" lon="128.8928">
                <ele>86.26</ele>
            </trkpt>
            <trkpt lat="37.699262" lon="128.89286">
                <ele>84.851</ele>
            </trkpt>
            <trkpt lat="37.699528" lon="128.892892">
                <ele>83.699</ele>
            </trkpt>
            <trkpt lat="37.699778" lon="128.892886">
                <ele>82.799</ele>
            </trkpt>
            <trkpt lat="37.700023" lon="128.892886">
                <ele>81.917</ele>
            </trkpt>
            <trkpt lat="37.700236" lon="128.892859">
                <ele>81.15</ele>
            </trkpt>
            <trkpt lat="37.700507" lon="128.892824">
                <ele>80.175</ele>
            </trkpt>
            <trkpt lat="37.700621" lon="128.89283">
                <ele>79.72</ele>
            </trkpt>
            <trkpt lat="37.700863" lon="128.892848">
                <ele>78.613</ele>
            </trkpt>
            <trkpt lat="37.701105" lon="128.892867">
                <ele>77.387</ele>
            </trkpt>
            <trkpt lat="37.701543" lon="128.892894">
                <ele>77.259</ele>
            </trkpt>
            <trkpt lat="37.701814" lon="128.892901">
                <ele>76.765</ele>
            </trkpt>
            <trkpt lat="37.702086" lon="128.892908">
                <ele>76.261</ele>
            </trkpt>
            <trkpt lat="37.70234" lon="128.892955">
                <ele>75.576</ele>
            </trkpt>
            <trkpt lat="37.702745" lon="128.893136">
                <ele>74.084</ele>
            </trkpt>
            <trkpt lat="37.702968" lon="128.893267">
                <ele>73.315</ele>
            </trkpt>
            <trkpt lat="37.703207" lon="128.893212">
                <ele>72.455</ele>
            </trkpt>
            <trkpt lat="37.703447" lon="128.893158">
                <ele>71.591</ele>
            </trkpt>
            <trkpt lat="37.703815" lon="128.893054">
                <ele>71.0</ele>
            </trkpt>
            <trkpt lat="37.703778" lon="128.892725">
                <ele>71.19</ele>
            </trkpt>
            <trkpt lat="37.703792" lon="128.892372">
                <ele>72.622</ele>
            </trkpt>
            <trkpt lat="37.703806" lon="128.892019">
                <ele>73.298</ele>
            </trkpt>
            <trkpt lat="37.703806" lon="128.891594">
                <ele>72.115</ele>
            </trkpt>
            <trkpt lat="37.704146" lon="128.891584">
                <ele>69.851</ele>
            </trkpt>
            <trkpt lat="37.704485" lon="128.891574">
                <ele>67.715</ele>
            </trkpt>
            <trkpt lat="37.704837" lon="128.891557">
                <ele>67.75</ele>
            </trkpt>
            <trkpt lat="37.70519" lon="128.891541">
                <ele>67.078</ele>
            </trkpt>
            <trkpt lat="37.705542" lon="128.891525">
                <ele>66.535</ele>
            </trkpt>
            <trkpt lat="37.705857" lon="128.891508">
                <ele>65.437</ele>
            </trkpt>
            <trkpt lat="37.706171" lon="128.891491">
                <ele>63.784</ele>
            </trkpt>
            <trkpt lat="37.706486" lon="128.891473">
                <ele>62.407</ele>
            </trkpt>
            <trkpt lat="37.706649" lon="128.891473">
                <ele>61.411</ele>
            </trkpt>
            <trkpt lat="37.706939" lon="128.891559">
                <ele>61.012</ele>
            </trkpt>
            <trkpt lat="37.70723" lon="128.891645">
                <ele>59.05</ele>
            </trkpt>
            <trkpt lat="37.707517" lon="128.891726">
                <ele>58.201</ele>
            </trkpt>
            <trkpt lat="37.707805" lon="128.891807">
                <ele>57.854</ele>
            </trkpt>
            <trkpt lat="37.707927" lon="128.891837">
                <ele>57.255</ele>
            </trkpt>
            <trkpt lat="37.708064" lon="128.891424">
                <ele>56.817</ele>
            </trkpt>
            <trkpt lat="37.708198" lon="128.890961">
                <ele>57.028</ele>
            </trkpt>
            <trkpt lat="37.708332" lon="128.890498">
                <ele>57.005</ele>
            </trkpt>
            <trkpt lat="37.708347" lon="128.890254">
                <ele>56.91</ele>
            </trkpt>
            <trkpt lat="37.708355" lon="128.889857">
                <ele>53.903</ele>
            </trkpt>
            <trkpt lat="37.708395" lon="128.889461">
                <ele>49.179</ele>
            </trkpt>
            <trkpt lat="37.708423174" lon="128.889066033">
                <ele>48.0</ele>
            </trkpt>
            <trkpt lat="37.708382215" lon="128.889070044">
                <ele>48.0</ele>
            </trkpt>
            <trkpt lat="37.708289146" lon="128.88905863">
                <ele>48.159</ele>
            </trkpt>
            <trkpt lat="37.707977788" lon="128.889139169">
                <ele>49.588</ele>
            </trkpt>
            <trkpt lat="37.707719377" lon="128.889190219">
                <ele>51.487</ele>
            </trkpt>
            <trkpt lat="37.707636766" lon="128.889198307">
                <ele>52.071</ele>
            </trkpt>
            <trkpt lat="37.707441871" lon="128.889171665">
                <ele>53.419</ele>
            </trkpt>
            <trkpt lat="37.707173536" lon="128.889083489">
                <ele>55.298</ele>
            </trkpt>
            <trkpt lat="37.706978616" lon="128.888997942">
                <ele>56.221</ele>
            </trkpt>
            <trkpt lat="37.706832428" lon="128.888939137">
                <ele>56.108</ele>
            </trkpt>
            <trkpt lat="37.706696835" lon="128.888888358">
                <ele>56.0</ele>
            </trkpt>
            <trkpt lat="37.706448955" lon="128.888797493">
                <ele>56.0</ele>
            </trkpt>
            <trkpt lat="37.706275239" lon="128.888762805">
                <ele>55.777</ele>
            </trkpt>
        </trkseg>
    </trk>
</gpx>
